FENGYUN 1C DEB          
1 30471U 99025AGJ 17345.51801834  .00000652  00000-0  44078-3 0  9999
2 30471  99.2377  10.4927 0095885  86.6741  74.6295 14.01793763554158
